<?xml version="1.0" encoding="UTF-8"?>
<ndm xmlns:xsi="http://www.w3.org/2001/XMLSchema-instance" xsi:noNamespaceSchemaLocation="https://sanaregistry.org/r/ndmxml_unqualified/ndmxml-2.0.0-master-2.0.xsd">
<omm id="CCSDS_OMM_VERS" version="2.0">
<header><CREATION_DATE/><ORIGINATOR/></header><body><segment><metadata><OBJECT_NAME>ONEWEB-0021</OBJECT_NAME><OBJECT_ID>2020-008D</OBJECT_ID><CENTER_NAME>EARTH</CENTER_NAME><REF_FRAME>TEME</REF_FRAME><TIME_SYSTEM>UTC</TIME_SYSTEM><MEAN_ELEMENT_THEORY>SGP4</MEAN_ELEMENT_THEORY></metadata><data><meanElements><EPOCH>2024-01-29T12:01:34.639968</EPOCH><MEAN_MOTION>13.10370471</MEAN_MOTION><ECCENTRICITY>.000152</ECCENTRICITY><INCLINATION>87.8904</INCLINATION><RA_OF_ASC_NODE>209.0176</RA_OF_ASC_NODE><ARG_OF_PERICENTER>92.1868</ARG_OF_PERICENTER><MEAN_ANOMALY>267.9433</MEAN_ANOMALY></meanElements><tleParameters><EPHEMERIS_TYPE>0</EPHEMERIS_TYPE><CLASSIFICATION_TYPE>U</CLASSIFICATION_TYPE><NORAD_CAT_ID>45134</NORAD_CAT_ID><ELEMENT_SET_NO>999</ELEMENT_SET_NO><REV_AT_EPOCH>19475</REV_AT_EPOCH><BSTAR>.3604E-3</BSTAR><MEAN_MOTION_DOT>.138E-5</MEAN_MOTION_DOT><MEAN_MOTION_DDOT>0</MEAN_MOTION_DDOT></tleParameters></data></segment></body></omm>
<omm id="CCSDS_OMM_VERS" version="2.0">
<header><CREATION_DATE/><ORIGINATOR/></header><body><segment><metadata><OBJECT_NAME>ONEWEB-0022</OBJECT_NAME><OBJECT_ID>2020-008E</OBJECT_ID><CENTER_NAME>EARTH</CENTER_NAME><REF_FRAME>TEME</REF_FRAME><TIME_SYSTEM>UTC</TIME_SYSTEM><MEAN_ELEMENT_THEORY>SGP4</MEAN_ELEMENT_THEORY></metadata><data><meanElements><EPOCH>2024-01-29T21:45:12.493440</EPOCH><MEAN_MOTION>13.10395262</MEAN_MOTION><ECCENTRICITY>.0001483</ECCENTRICITY><INCLINATION>87.8907</INCLINATION><RA_OF_ASC_NODE>208.9557</RA_OF_ASC_NODE><ARG_OF_PERICENTER>79.1779</ARG_OF_PERICENTER><MEAN_ANOMALY>280.9516</MEAN_ANOMALY></meanElements><tleParameters><EPHEMERIS_TYPE>0</EPHEMERIS_TYPE><CLASSIFICATION_TYPE>U</CLASSIFICATION_TYPE><NORAD_CAT_ID>45135</NORAD_CAT_ID><ELEMENT_SET_NO>999</ELEMENT_SET_NO><REV_AT_EPOCH>19450</REV_AT_EPOCH><BSTAR>-.18355E-2</BSTAR><MEAN_MOTION_DOT>-.628E-5</MEAN_MOTION_DOT><MEAN_MOTION_DDOT>0</MEAN_MOTION_DDOT></tleParameters></data></segment></body></omm>
<omm id="CCSDS_OMM_VERS" version="2.0">
<header><CREATION_DATE/><ORIGINATOR/></header><body><segment><metadata><OBJECT_NAME>ONEWEB-0023</OBJECT_NAME><OBJECT_ID>2020-008F</OBJECT_ID><CENTER_NAME>EARTH</CENTER_NAME><REF_FRAME>TEME</REF_FRAME><TIME_SYSTEM>UTC</TIME_SYSTEM><MEAN_ELEMENT_THEORY>SGP4</MEAN_ELEMENT_THEORY></metadata><data><meanElements><EPOCH>2024-01-29T21:30:02.714400</EPOCH><MEAN_MOTION>13.10372073</MEAN_MOTION><ECCENTRICITY>.0001113</ECCENTRICITY><INCLINATION>87.8903</INCLINATION><RA_OF_ASC_NODE>208.9315</RA_OF_ASC_NODE><ARG_OF_PERICENTER>105.7907</ARG_OF_PERICENTER><MEAN_ANOMALY>254.3343</MEAN_ANOMALY></meanElements><tleParameters><EPHEMERIS_TYPE>0</EPHEMERIS_TYPE><CLASSIFICATION_TYPE>U</CLASSIFICATION_TYPE><NORAD_CAT_ID>45136</NORAD_CAT_ID><ELEMENT_SET_NO>999</ELEMENT_SET_NO><REV_AT_EPOCH>19423</REV_AT_EPOCH><BSTAR>-.14294E-2</BSTAR><MEAN_MOTION_DOT>-.486E-5</MEAN_MOTION_DOT><MEAN_MOTION_DDOT>0</MEAN_MOTION_DDOT></tleParameters></data></segment></body></omm>
<omm id="CCSDS_OMM_VERS" version="2.0">
<header><CREATION_DATE/><ORIGINATOR/></header><body><segment><metadata><OBJECT_NAME>ONEWEB-0024</OBJECT_NAME><OBJECT_ID>2020-008G</OBJECT_ID><CENTER_NAME>EARTH</CENTER_NAME><REF_FRAME>TEME</REF_FRAME><TIME_SYSTEM>UTC</TIME_SYSTEM><MEAN_ELEMENT_THEORY>SGP4</MEAN_ELEMENT_THEORY></metadata><data><meanElements><EPOCH>2024-01-29T11:38:12.078528</EPOCH><MEAN_MOTION>13.10373887</MEAN_MOTION><ECCENTRICITY>.0001637</ECCENTRICITY><INCLINATION>87.8894</INCLINATION><RA_OF_ASC_NODE>209.0145</RA_OF_ASC_NODE><ARG_OF_PERICENTER>92.7790</ARG_OF_PERICENTER><MEAN_ANOMALY>267.3525</MEAN_ANOMALY></meanElements><tleParameters><EPHEMERIS_TYPE>0</EPHEMERIS_TYPE><CLASSIFICATION_TYPE>U</CLASSIFICATION_TYPE><NORAD_CAT_ID>45137</NORAD_CAT_ID><ELEMENT_SET_NO>999</ELEMENT_SET_NO><REV_AT_EPOCH>19434</REV_AT_EPOCH><BSTAR>.19047E-2</BSTAR><MEAN_MOTION_DOT>.678E-5</MEAN_MOTION_DOT><MEAN_MOTION_DDOT>0</MEAN_MOTION_DDOT></tleParameters></data></segment></body></omm>
<omm id="CCSDS_OMM_VERS" version="2.0">
<header><CREATION_DATE/><ORIGINATOR/></header><body><segment><metadata><OBJECT_NAME>ONEWEB-0025</OBJECT_NAME><OBJECT_ID>2020-008H</OBJECT_ID><CENTER_NAME>EARTH</CENTER_NAME><REF_FRAME>TEME</REF_FRAME><TIME_SYSTEM>UTC</TIME_SYSTEM><MEAN_ELEMENT_THEORY>SGP4</MEAN_ELEMENT_THEORY></metadata><data><meanElements><EPOCH>2024-01-29T12:03:54.831744</EPOCH><MEAN_MOTION>13.10370288</MEAN_MOTION><ECCENTRICITY>.0001559</ECCENTRICITY><INCLINATION>87.8892</INCLINATION><RA_OF_ASC_NODE>209.0107</RA_OF_ASC_NODE><ARG_OF_PERICENTER>101.0521</ARG_OF_PERICENTER><MEAN_ANOMALY>259.0782</MEAN_ANOMALY></meanElements><tleParameters><EPHEMERIS_TYPE>0</EPHEMERIS_TYPE><CLASSIFICATION_TYPE>U</CLASSIFICATION_TYPE><NORAD_CAT_ID>45138</NORAD_CAT_ID><ELEMENT_SET_NO>999</ELEMENT_SET_NO><REV_AT_EPOCH>19467</REV_AT_EPOCH><BSTAR>.52769E-4</BSTAR><MEAN_MOTION_DOT>.31E-6</MEAN_MOTION_DOT><MEAN_MOTION_DDOT>0</MEAN_MOTION_DDOT></tleParameters></data></segment></body></omm>
<omm id="CCSDS_OMM_VERS" version="2.0">
<header><CREATION_DATE/><ORIGINATOR/></header><body><segment><metadata><OBJECT_NAME>ONEWEB-0026</OBJECT_NAME><OBJECT_ID>2020-008J</OBJECT_ID><CENTER_NAME>EARTH</CENTER_NAME><REF_FRAME>TEME</REF_FRAME><TIME_SYSTEM>UTC</TIME_SYSTEM><MEAN_ELEMENT_THEORY>SGP4</MEAN_ELEMENT_THEORY></metadata><data><meanElements><EPOCH>2024-01-29T21:48:14.559840</EPOCH><MEAN_MOTION>13.11089966</MEAN_MOTION><ECCENTRICITY>.0003885</ECCENTRICITY><INCLINATION>87.8929</INCLINATION><RA_OF_ASC_NODE>193.8331</RA_OF_ASC_NODE><ARG_OF_PERICENTER>121.9283</ARG_OF_PERICENTER><MEAN_ANOMALY>238.2223</MEAN_ANOMALY></meanElements><tleParameters><EPHEMERIS_TYPE>0</EPHEMERIS_TYPE><CLASSIFICATION_TYPE>U</CLASSIFICATION_TYPE><NORAD_CAT_ID>45139</NORAD_CAT_ID><ELEMENT_SET_NO>999</ELEMENT_SET_NO><REV_AT_EPOCH>19717</REV_AT_EPOCH><BSTAR>-.33047E+0</BSTAR><MEAN_MOTION_DOT>-.11512E-2</MEAN_MOTION_DOT><MEAN_MOTION_DDOT>0</MEAN_MOTION_DDOT></tleParameters></data></segment></body></omm>
<omm id="CCSDS_OMM_VERS" version="2.0">
<header><CREATION_DATE/><ORIGINATOR/></header><body><segment><metadata><OBJECT_NAME>ONEWEB-0028</OBJECT_NAME><OBJECT_ID>2020-008K</OBJECT_ID><CENTER_NAME>EARTH</CENTER_NAME><REF_FRAME>TEME</REF_FRAME><TIME_SYSTEM>UTC</TIME_SYSTEM><MEAN_ELEMENT_THEORY>SGP4</MEAN_ELEMENT_THEORY></metadata><data><meanElements><EPOCH>2024-01-29T11:34:41.618496</EPOCH><MEAN_MOTION>13.11415921</MEAN_MOTION><ECCENTRICITY>.0001761</ECCENTRICITY><INCLINATION>87.8975</INCLINATION><RA_OF_ASC_NODE>193.9642</RA_OF_ASC_NODE><ARG_OF_PERICENTER>118.0297</ARG_OF_PERICENTER><MEAN_ANOMALY>242.1009</MEAN_ANOMALY></meanElements><tleParameters><EPHEMERIS_TYPE>0</EPHEMERIS_TYPE><CLASSIFICATION_TYPE>U</CLASSIFICATION_TYPE><NORAD_CAT_ID>45140</NORAD_CAT_ID><ELEMENT_SET_NO>999</ELEMENT_SET_NO><REV_AT_EPOCH>19463</REV_AT_EPOCH><BSTAR>-.1508E-2</BSTAR><MEAN_MOTION_DOT>-.522E-5</MEAN_MOTION_DOT><MEAN_MOTION_DDOT>0</MEAN_MOTION_DDOT></tleParameters></data></segment></body></omm>
<omm id="CCSDS_OMM_VERS" version="2.0">
<header><CREATION_DATE/><ORIGINATOR/></header><body><segment><metadata><OBJECT_NAME>ONEWEB-0032</OBJECT_NAME><OBJECT_ID>2020-008L</OBJECT_ID><CENTER_NAME>EARTH</CENTER_NAME><REF_FRAME>TEME</REF_FRAME><TIME_SYSTEM>UTC</TIME_SYSTEM><MEAN_ELEMENT_THEORY>SGP4</MEAN_ELEMENT_THEORY></metadata><data><meanElements><EPOCH>2024-01-29T21:37:03.953280</EPOCH><MEAN_MOTION>13.10371316</MEAN_MOTION><ECCENTRICITY>.0001634</ECCENTRICITY><INCLINATION>87.8897</INCLINATION><RA_OF_ASC_NODE>208.9767</RA_OF_ASC_NODE><ARG_OF_PERICENTER>96.0111</ARG_OF_PERICENTER><MEAN_ANOMALY>264.1203</MEAN_ANOMALY></meanElements><tleParameters><EPHEMERIS_TYPE>0</EPHEMERIS_TYPE><CLASSIFICATION_TYPE>U</CLASSIFICATION_TYPE><NORAD_CAT_ID>45141</NORAD_CAT_ID><ELEMENT_SET_NO>999</ELEMENT_SET_NO><REV_AT_EPOCH>19445</REV_AT_EPOCH><BSTAR>-.17858E-2</BSTAR><MEAN_MOTION_DOT>-.611E-5</MEAN_MOTION_DOT><MEAN_MOTION_DDOT>0</MEAN_MOTION_DDOT></tleParameters></data></segment></body></omm>
<omm id="CCSDS_OMM_VERS" version="2.0">
<header><CREATION_DATE/><ORIGINATOR/></header><body><segment><metadata><OBJECT_NAME>ONEWEB-0033</OBJECT_NAME><OBJECT_ID>2020-008M</OBJECT_ID><CENTER_NAME>EARTH</CENTER_NAME><REF_FRAME>TEME</REF_FRAME><TIME_SYSTEM>UTC</TIME_SYSTEM><MEAN_ELEMENT_THEORY>SGP4</MEAN_ELEMENT_THEORY></metadata><data><meanElements><EPOCH>2024-01-29T11:49:53.242176</EPOCH><MEAN_MOTION>13.10370821</MEAN_MOTION><ECCENTRICITY>.0001634</ECCENTRICITY><INCLINATION>87.8895</INCLINATION><RA_OF_ASC_NODE>209.0654</RA_OF_ASC_NODE><ARG_OF_PERICENTER>83.5226</ARG_OF_PERICENTER><MEAN_ANOMALY>276.6087</MEAN_ANOMALY></meanElements><tleParameters><EPHEMERIS_TYPE>0</EPHEMERIS_TYPE><CLASSIFICATION_TYPE>U</CLASSIFICATION_TYPE><NORAD_CAT_ID>45142</NORAD_CAT_ID><ELEMENT_SET_NO>999</ELEMENT_SET_NO><REV_AT_EPOCH>19431</REV_AT_EPOCH><BSTAR>.14316E-2</BSTAR><MEAN_MOTION_DOT>.512E-5</MEAN_MOTION_DOT><MEAN_MOTION_DDOT>0</MEAN_MOTION_DDOT></tleParameters></data></segment></body></omm>

</ndm>
